{
  "type": "FeatureCollection",
  "features": [
    {
      "type": "Feature",
      "properties": {
        "norad_id": 52912,
        "name": "GAOFEN-12 03",
        "group": "resource",
        "lat": 42.065628321631586,
        "lon": 71.73377582846551,
        "alt_km": 627.0370264946168,
        "timestamp": "2025-12-23T11:34:47.839760+00:00",
        "meta_object_name": "GAOFEN-12 03",
        "meta_object_id": "2022-069A",
        "meta_epoch": "2025-12-23T04:28:09.676704",
        "meta_mean_motion": 14.79633082,
        "meta_eccentricity": 0.0001891,
        "meta_inclination": 97.8482,
        "meta_ra_of_asc_node": 244.2936,
        "meta_arg_of_pericenter": 50.2588,
        "meta_mean_anomaly": 309.879,
        "meta_ephemeris_type": 0,
        "meta_classification_type": "U",
        "meta_norad_cat_id": 52912,
        "meta_element_set_no": 999,
        "meta_rev_at_epoch": 18858,
        "meta_bstar": 0.00020651,
        "meta_mean_motion_dot": 1.498e-05,
        "meta_mean_motion_ddot": 0,
        "tle_line1": "1 52912U 22069A   25357.18622311  .00001498  00000+0  20651-3 0  9992",
        "tle_line2": "2 52912  97.8482 244.2936 0001891  50.2588 309.8790 14.79633082188585"
      },
      "geometry": {
        "type": "Point",
        "coordinates": [
          71.73377582846551,
          42.065628321631586
        ]
      }
    },
    {
      "type": "Feature",
      "properties": {
        "norad_id": 54754,
        "name": "SWOT",
        "group": "resource",
        "lat": -67.50825724490696,
        "lon": -119.57520856725613,
        "alt_km": 900.5448399308807,
        "timestamp": "2025-12-23T11:34:47.839770+00:00",
        "meta_object_name": "SWOT",
        "meta_object_id": "2022-173A",
        "meta_epoch": "2025-12-23T03:20:39.884064",
        "meta_mean_motion": 14.0016837,
        "meta_eccentricity": 3.87e-05,
        "meta_inclination": 77.6109,
        "meta_ra_of_asc_node": 272.9518,
        "meta_arg_of_pericenter": 83.2798,
        "meta_mean_anomaly": 276.8398,
        "meta_ephemeris_type": 0,
        "meta_classification_type": "U",
        "meta_norad_cat_id": 54754,
        "meta_element_set_no": 999,
        "meta_rev_at_epoch": 15451,
        "meta_bstar": 3.9621e-05,
        "meta_mean_motion_dot": 5.6e-07,
        "meta_mean_motion_ddot": 0,
        "tle_line1": "1 54754U 22173A   25357.13935051  .00000056  00000+0  39621-4 0  9994",
        "tle_line2": "2 54754  77.6109 272.9518 0000387  83.2798 276.8398 14.00168370154515"
      },
      "geometry": {
        "type": "Point",
        "coordinates": [
          -119.57520856725613,
          -67.50825724490696
        ]
      }
    },
    {
      "type": "Feature",
      "properties": {
        "norad_id": 57654,
        "name": "GAOFEN-12 04",
        "group": "resource",
        "lat": -48.840259815719314,
        "lon": -77.76842952292722,
        "alt_km": 637.5631973374248,
        "timestamp": "2025-12-23T11:34:47.839779+00:00",
        "meta_object_name": "GAOFEN-12 04",
        "meta_object_id": "2023-123A",
        "meta_epoch": "2025-12-23T05:18:41.558112",
        "meta_mean_motion": 14.79729012,
        "meta_eccentricity": 0.0001209,
        "meta_inclination": 97.9128,
        "meta_ra_of_asc_node": 272.8198,
        "meta_arg_of_pericenter": 78.3324,
        "meta_mean_anomaly": 281.8024,
        "meta_ephemeris_type": 0,
        "meta_classification_type": "U",
        "meta_norad_cat_id": 57654,
        "meta_element_set_no": 999,
        "meta_rev_at_epoch": 12660,
        "meta_bstar": 0.00018336,
        "meta_mean_motion_dot": 1.327e-05,
        "meta_mean_motion_ddot": 0,
        "tle_line1": "1 57654U 23123A   25357.22131433  .00001327  00000+0  18336-3 0  9995",
        "tle_line2": "2 57654  97.9128 272.8198 0001209  78.3324 281.8024 14.79729012126603"
      },
      "geometry": {
        "type": "Point",
        "coordinates": [
          -77.76842952292722,
          -48.840259815719314
        ]
      }
    },
    {
      "type": "Feature",
      "properties": {
        "norad_id": 59065,
        "name": "PARS 1",
        "group": "resource",
        "lat": -17.07149518721881,
        "lon": 146.33694167298242,
        "alt_km": 455.0112644862229,
        "timestamp": "2025-12-23T11:34:47.839788+00:00",
        "meta_object_name": "PARS 1",
        "meta_object_id": "2024-039Q",
        "meta_epoch": "2025-12-23T04:29:42.072000",
        "meta_mean_motion": 15.41201559,
        "meta_eccentricity": 0.0011774,
        "meta_inclination": 97.4651,
        "meta_ra_of_asc_node": 328.3431,
        "meta_arg_of_pericenter": 40.3776,
        "meta_mean_anomaly": 319.8342,
        "meta_ephemeris_type": 0,
        "meta_classification_type": "U",
        "meta_norad_cat_id": 59065,
        "meta_element_set_no": 999,
        "meta_rev_at_epoch": 10149,
        "meta_bstar": 0.00030453,
        "meta_mean_motion_dot": 0.00012589,
        "meta_mean_motion_ddot": 0,
        "tle_line1": "1 59065U 24039Q   25357.18729250  .00012589  00000+0  30453-3 0  9991",
        "tle_line2": "2 59065  97.4651 328.3431 0011774  40.3776 319.8342 15.41201559101498"
      },
      "geometry": {
        "type": "Point",
        "coordinates": [
          146.33694167298242,
          -17.07149518721881
        ]
      }
    },
    {
      "type": "Feature",
      "properties": {
        "norad_id": 59371,
        "name": "RESURS-P 4",
        "group": "resource",
        "lat": -7.378768438579781,
        "lon": -55.46147428262221,
        "alt_km": 473.2443745346027,
        "timestamp": "2025-12-23T11:34:47.839797+00:00",
        "meta_object_name": "RESURS-P 4",
        "meta_object_id": "2024-061A",
        "meta_epoch": "2025-12-23T03:46:30.749376",
        "meta_mean_motion": 15.32164006,
        "meta_eccentricity": 9.15e-05,
        "meta_inclination": 97.2563,
        "meta_ra_of_asc_node": 303.2744,
        "meta_arg_of_pericenter": 72.5127,
        "meta_mean_anomaly": 287.6215,
        "meta_ephemeris_type": 0,
        "meta_classification_type": "U",
        "meta_norad_cat_id": 59371,
        "meta_element_set_no": 999,
        "meta_rev_at_epoch": 9680,
        "meta_bstar": 0.00014253,
        "meta_mean_motion_dot": 4.35e-05,
        "meta_mean_motion_ddot": 0,
        "tle_line1": "1 59371U 24061A   25357.15730034  .00004350  00000+0  14253-3 0  9992",
        "tle_line2": "2 59371  97.2563 303.2744 0000915  72.5127 287.6215 15.32164006 96803"
      },
      "geometry": {
        "type": "Point",
        "coordinates": [
          -55.46147428262221,
          -7.378768438579781
        ]
      }
    },
    {
      "type": "Feature",
      "properties": {
        "norad_id": 59625,
        "name": "LEGION 1",
        "group": "resource",
        "lat": -24.126945978358606,
        "lon": 75.4214621626502,
        "alt_km": 520.8434224065177,
        "timestamp": "2025-12-23T11:34:47.839806+00:00",
        "meta_object_name": "LEGION 1",
        "meta_object_id": "2024-081A",
        "meta_epoch": "2025-12-22T21:26:07.519776",
        "meta_mean_motion": 15.16573479,
        "meta_eccentricity": 0.00036279,
        "meta_inclination": 97.5201,
        "meta_ra_of_asc_node": 71.4452,
        "meta_arg_of_pericenter": 270.1017,
        "meta_mean_anomaly": 89.98,
        "meta_ephemeris_type": 0,
        "meta_classification_type": "U",
        "meta_norad_cat_id": 59625,
        "meta_element_set_no": 999,
        "meta_rev_at_epoch": 9081,
        "meta_bstar": 0.00029998685,
        "meta_mean_motion_dot": 5.79e-05,
        "meta_mean_motion_ddot": 0,
        "tle_line1": "1 59625U 24081A   25356.89314259  .00005790  00000+0  29999-3 0  9995",
        "tle_line2": "2 59625  97.5201  71.4452 0003627 270.1017  89.9800 15.16573479 90812"
      },
      "geometry": {
        "type": "Point",
        "coordinates": [
          75.4214621626502,
          -24.126945978358606
        ]
      }
    },
    {
      "type": "Feature",
      "properties": {
        "norad_id": 59626,
        "name": "LEGION 2",
        "group": "resource",
        "lat": 23.74248201912741,
        "lon": -104.55146485163472,
        "alt_km": 515.8084162407358,
        "timestamp": "2025-12-23T11:34:47.839815+00:00",
        "meta_object_name": "LEGION 2",
        "meta_object_id": "2024-081B",
        "meta_epoch": "2025-12-22T20:38:33.108288",
        "meta_mean_motion": 15.16586549,
        "meta_eccentricity": 0.00056773,
        "meta_inclination": 97.5203,
        "meta_ra_of_asc_node": 71.5003,
        "meta_arg_of_pericenter": 249.6967,
        "meta_mean_anomaly": 110.3656,
        "meta_ephemeris_type": 0,
        "meta_classification_type": "U",
        "meta_norad_cat_id": 59626,
        "meta_element_set_no": 999,
        "meta_rev_at_epoch": 9081,
        "meta_bstar": 0.00026026109,
        "meta_mean_motion_dot": 5.017e-05,
        "meta_mean_motion_ddot": 0,
        "tle_line1": "1 59626U 24081B   25356.86010542  .00005017  00000+0  26026-3 0  9991",
        "tle_line2": "2 59626  97.5203  71.5003 0005677 249.6967 110.3656 15.16586549 90810"
      },
      "geometry": {
        "type": "Point",
        "coordinates": [
          -104.55146485163472,
          23.74248201912741
        ]
      }
    }
  ]
}